[{"OBJECT_NAME":"STARLINK-30300","OBJECT_ID":"2023-129T","EPOCH":"2023-09-15T14:00:01.000224","MEAN_MOTION":15.61892774,"ECCENTRICITY":9.58e-5,"INCLINATION":43.0004,"RA_OF_ASC_NODE":8.6121,"ARG_OF_PERICENTER":277,"MEAN_ANOMALY":194.9755,"EPHEMERIS_TYPE":0,"CLASSIFICATION_TYPE":"U","NORAD_CAT_ID":57715,"ELEMENT_SET_NO":999,"REV_AT_EPOCH":433,"BSTAR":-0.020677,"MEAN_MOTION_DOT":-0.01632121,"MEAN_MOTION_DDOT":0},{"OBJECT_NAME":"STARLINK-30281","OBJECT_ID":"2023-129U","EPOCH":"2023-09-15T14:00:01.000224","MEAN_MOTION":15.61775865,"ECCENTRICITY":0.0006445,"INCLINATION":43.0004,"RA_OF_ASC_NODE":8.6299,"ARG_OF_PERICENTER":221.0579,"MEAN_ANOMALY":243.7821,"EPHEMERIS_TYPE":0,"CLASSIFICATION_TYPE":"U","NORAD_CAT_ID":57716,"ELEMENT_SET_NO":999,"REV_AT_EPOCH":401,"BSTAR":-0.02104,"MEAN_MOTION_DOT":-0.01654894,"MEAN_MOTION_DDOT":0},{"OBJECT_NAME":"STARLINK-30325","OBJECT_ID":"2023-129V","EPOCH":"2023-09-15T14:00:01.000224","MEAN_MOTION":15.61921632,"ECCENTRICITY":0.0001225,"INCLINATION":43.0004,"RA_OF_ASC_NODE":8.6089,"ARG_OF_PERICENTER":268.2479,"MEAN_ANOMALY":205.1193,"EPHEMERIS_TYPE":0,"CLASSIFICATION_TYPE":"U","NORAD_CAT_ID":57717,"ELEMENT_SET_NO":999,"REV_AT_EPOCH":433,"BSTAR":-0.020651,"MEAN_MOTION_DOT":-0.01632094,"MEAN_MOTION_DDOT":0},{"OBJECT_NAME":"STARLINK-30338","OBJECT_ID":"2023-129W","EPOCH":"2023-09-15T20:00:01.000224","MEAN_MOTION":15.61079241,"ECCENTRICITY":0.0003548,"INCLINATION":43.0004,"RA_OF_ASC_NODE":7.1175,"ARG_OF_PERICENTER":207.8363,"MEAN_ANOMALY":234.0079,"EPHEMERIS_TYPE":0,"CLASSIFICATION_TYPE":"U","NORAD_CAT_ID":57718,"ELEMENT_SET_NO":999,"REV_AT_EPOCH":433,"BSTAR":-0.021868,"MEAN_MOTION_DOT":-0.01699231,"MEAN_MOTION_DDOT":0},{"OBJECT_NAME":"STARLINK-30334","OBJECT_ID":"2023-129X","EPOCH":"2023-09-15T14:00:01.000224","MEAN_MOTION":15.61937965,"ECCENTRICITY":6.18e-5,"INCLINATION":43.0005,"RA_OF_ASC_NODE":8.6062,"ARG_OF_PERICENTER":272.7463,"MEAN_ANOMALY":201.5829,"EPHEMERIS_TYPE":0,"CLASSIFICATION_TYPE":"U","NORAD_CAT_ID":57719,"ELEMENT_SET_NO":999,"REV_AT_EPOCH":417,"BSTAR":-0.020638,"MEAN_MOTION_DOT":-0.01631777,"MEAN_MOTION_DDOT":0},{"OBJECT_NAME":"YAOGAN-39 01A","OBJECT_ID":"2023-130A","EPOCH":"2023-09-15T15:16:38.314848","MEAN_MOTION":15.23321503,"ECCENTRICITY":0.0006976,"INCLINATION":34.9975,"RA_OF_ASC_NODE":332.38,"ARG_OF_PERICENTER":32.037,"MEAN_ANOMALY":328.0768,"EPHEMERIS_TYPE":0,"CLASSIFICATION_TYPE":"U","NORAD_CAT_ID":57727,"ELEMENT_SET_NO":999,"REV_AT_EPOCH":231,"BSTAR":0.00072449,"MEAN_MOTION_DOT":0.00017636,"MEAN_MOTION_DDOT":0},{"OBJECT_NAME":"CZ-2D R\/B","OBJECT_ID":"2023-130B","EPOCH":"2023-09-15T13:39:51.441696","MEAN_MOTION":15.23254778,"ECCENTRICITY":0.000887,"INCLINATION":34.9982,"RA_OF_ASC_NODE":332.7785,"ARG_OF_PERICENTER":39.0442,"MEAN_ANOMALY":321.0912,"EPHEMERIS_TYPE":0,"CLASSIFICATION_TYPE":"U","NORAD_CAT_ID":57728,"ELEMENT_SET_NO":999,"REV_AT_EPOCH":232,"BSTAR":0.00053744,"MEAN_MOTION_DOT":0.00013044,"MEAN_MOTION_DDOT":0},{"OBJECT_NAME":"YAOGAN-39 01B","OBJECT_ID":"2023-130C","EPOCH":"2023-09-15T15:10:45.565248","MEAN_MOTION":15.23889859,"ECCENTRICITY":0.0008526,"INCLINATION":34.9978,"RA_OF_ASC_NODE":332.3458,"ARG_OF_PERICENTER":34.3776,"MEAN_ANOMALY":325.749,"EPHEMERIS_TYPE":0,"CLASSIFICATION_TYPE":"U","NORAD_CAT_ID":57729,"ELEMENT_SET_NO":999,"REV_AT_EPOCH":231,"BSTAR":0.0010399,"MEAN_MOTION_DOT":0.00025801,"MEAN_MOTION_DDOT":0},{"OBJECT_NAME":"CZ-2D DEB","OBJECT_ID":"2023-130D","EPOCH":"2023-09-15T13:35:19.792320","MEAN_MOTION":15.24017153,"ECCENTRICITY":0.0009526,"INCLINATION":34.9987,"RA_OF_ASC_NODE":332.7528,"ARG_OF_PERICENTER":34.8768,"MEAN_ANOMALY":325.257,"EPHEMERIS_TYPE":0,"CLASSIFICATION_TYPE":"U","NORAD_CAT_ID":57730,"ELEMENT_SET_NO":999,"REV_AT_EPOCH":230,"BSTAR":0.0011724,"MEAN_MOTION_DOT":0.00029225,"MEAN_MOTION_DDOT":0},{"OBJECT_NAME":"YAOGAN-39 01C","OBJECT_ID":"2023-130E","EPOCH":"2023-09-15T15:10:59.148192","MEAN_MOTION":15.23419249,"ECCENTRICITY":0.0009482,"INCLINATION":34.9982,"RA_OF_ASC_NODE":332.3475,"ARG_OF_PERICENTER":51.1448,"MEAN_ANOMALY":309.0112,"EPHEMERIS_TYPE":0,"CLASSIFICATION_TYPE":"U","NORAD_CAT_ID":57731,"ELEMENT_SET_NO":999,"REV_AT_EPOCH":231,"BSTAR":0.00071158,"MEAN_MOTION_DOT":0.00017381,"MEAN_MOTION_DDOT":0},{"OBJECT_NAME":"STARLINK-30375","OBJECT_ID":"2023-131A","EPOCH":"2023-09-15T08:42:49.462272","MEAN_MOTION":15.74760072,"ECCENTRICITY":0.0003529,"INCLINATION":42.9979,"RA_OF_ASC_NODE":64.7059,"ARG_OF_PERICENTER":216.7869,"MEAN_ANOMALY":143.2758,"EPHEMERIS_TYPE":0,"CLASSIFICATION_TYPE":"U","NORAD_CAT_ID":57732,"ELEMENT_SET_NO":999,"REV_AT_EPOCH":350,"BSTAR":0.0004971,"MEAN_MOTION_DOT":0.00075658,"MEAN_MOTION_DDOT":0},{"OBJECT_NAME":"STARLINK-30310","OBJECT_ID":"2023-131B","EPOCH":"2023-09-15T08:42:06.209568","MEAN_MOTION":15.74763058,"ECCENTRICITY":0.0004025,"INCLINATION":42.9962,"RA_OF_ASC_NODE":64.7018,"ARG_OF_PERICENTER":209.9288,"MEAN_ANOMALY":150.1351,"EPHEMERIS_TYPE":0,"CLASSIFICATION_TYPE":"U","NORAD_CAT_ID":57733,"ELEMENT_SET_NO":999,"REV_AT_EPOCH":350,"BSTAR":6.87e-5,"MEAN_MOTION_DOT":9.965e-5,"MEAN_MOTION_DDOT":0},{"OBJECT_NAME":"STARLINK-30365","OBJECT_ID":"2023-131C","EPOCH":"2023-09-15T08:14:55.603968","MEAN_MOTION":15.78661811,"ECCENTRICITY":0.0007411,"INCLINATION":42.9959,"RA_OF_ASC_NODE":64.5473,"ARG_OF_PERICENTER":238.7796,"MEAN_ANOMALY":121.2349,"EPHEMERIS_TYPE":0,"CLASSIFICATION_TYPE":"U","NORAD_CAT_ID":57734,"ELEMENT_SET_NO":999,"REV_AT_EPOCH":349,"BSTAR":0.00061095,"MEAN_MOTION_DOT":0.00111362,"MEAN_MOTION_DDOT":0},{"OBJECT_NAME":"STARLINK-30371","OBJECT_ID":"2023-131D","EPOCH":"2023-09-15T00:00:00.999648","MEAN_MOTION":15.76562662,"ECCENTRICITY":0.0003829,"INCLINATION":42.9977,"RA_OF_ASC_NODE":66.9025,"ARG_OF_PERICENTER":219.826,"MEAN_ANOMALY":241.809,"EPHEMERIS_TYPE":0,"CLASSIFICATION_TYPE":"U","NORAD_CAT_ID":57735,"ELEMENT_SET_NO":999,"REV_AT_EPOCH":332,"BSTAR":0.0016316,"MEAN_MOTION_DOT":0.00276493,"MEAN_MOTION_DDOT":0},{"OBJECT_NAME":"STARLINK-30352","OBJECT_ID":"2023-131E","EPOCH":"2023-09-15T08:42:39.105504","MEAN_MOTION":15.74764263,"ECCENTRICITY":0.000383,"INCLINATION":42.9966,"RA_OF_ASC_NODE":64.7056,"ARG_OF_PERICENTER":206.5964,"MEAN_ANOMALY":153.4709,"EPHEMERIS_TYPE":0,"CLASSIFICATION_TYPE":"U","NORAD_CAT_ID":57736,"ELEMENT_SET_NO":999,"REV_AT_EPOCH":349,"BSTAR":0.00023041,"MEAN_MOTION_DOT":0.00034649,"MEAN_MOTION_DDOT":0},{"OBJECT_NAME":"STARLINK-30344","OBJECT_ID":"2023-131F","EPOCH":"2023-09-15T00:00:00.999648","MEAN_MOTION":15.75049818,"ECCENTRICITY":0.000198,"INCLINATION":42.9982,"RA_OF_ASC_NODE":66.9054,"ARG_OF_PERICENTER":212.6664,"MEAN_ANOMALY":247.7221,"EPHEMERIS_TYPE":0,"CLASSIFICATION_TYPE":"U","NORAD_CAT_ID":57737,"ELEMENT_SET_NO":999,"REV_AT_EPOCH":316,"BSTAR":-0.006349,"MEAN_MOTION_DOT":-0.00880221,"MEAN_MOTION_DDOT":0},{"OBJECT_NAME":"STARLINK-30351","OBJECT_ID":"2023-131G","EPOCH":"2023-09-15T08:42:30.979584","MEAN_MOTION":15.74869989,"ECCENTRICITY":0.0007415,"INCLINATION":42.9972,"RA_OF_ASC_NODE":64.7041,"ARG_OF_PERICENTER":191.0168,"MEAN_ANOMALY":169.054,"EPHEMERIS_TYPE":0,"CLASSIFICATION_TYPE":"U","NORAD_CAT_ID":57738,"ELEMENT_SET_NO":999,"REV_AT_EPOCH":349,"BSTAR":0.00057245,"MEAN_MOTION_DOT":0.00087853,"MEAN_MOTION_DDOT":0}]
