STARLINK-30300          
1 57715U 23129T   23258.58334491 -.01632121  00000+0 -20677-1 0  9999
2 57715  43.0004   8.6121 0000958 277.0000 194.9755 15.61892774  4334
STARLINK-30281          
1 57716U 23129U   23258.58334491 -.01654894  00000+0 -21040-1 0  9996
2 57716  43.0004   8.6299 0006445 221.0579 243.7821 15.61775865  4011
STARLINK-30325          
1 57717U 23129V   23258.58334491 -.01632094  00000+0 -20651-1 0  9992
2 57717  43.0004   8.6089 0001225 268.2479 205.1193 15.61921632  4336
STARLINK-30338          
1 57718U 23129W   23258.83334491 -.01699231  00000+0 -21868-1 0  9998
2 57718  43.0004   7.1175 0003548 207.8363 234.0079 15.61079241  4332
STARLINK-30334          
1 57719U 23129X   23258.58334491 -.01631777  00000+0 -20638-1 0  9996
2 57719  43.0005   8.6062 0000618 272.7463 201.5829 15.61937965  4172
YAOGAN-39 01A           
1 57727U 23130A   23258.63655457  .00017636  00000+0  72449-3 0  9999
2 57727  34.9975 332.3800 0006976  32.0370 328.0768 15.23321503  2314
CZ-2D R/B               
1 57728U 23130B   23258.56934539  .00013044  00000+0  53744-3 0  9999
2 57728  34.9982 332.7785 0008870  39.0442 321.0912 15.23254778  2325
YAOGAN-39 01B           
1 57729U 23130C   23258.63247182  .00025801  00000+0  10399-2 0  9991
2 57729  34.9978 332.3458 0008526  34.3776 325.7490 15.23889859  2315
CZ-2D DEB               
1 57730U 23130D   23258.56620130  .00029225  00000+0  11724-2 0  9990
2 57730  34.9987 332.7528 0009526  34.8768 325.2570 15.24017153  2300
YAOGAN-39 01C           
1 57731U 23130E   23258.63262903  .00017381  00000+0  71158-3 0  9997
2 57731  34.9982 332.3475 0009482  51.1448 309.0112 15.23419249  2315
STARLINK-30375          
1 57732U 23131A   23258.36307248  .00075658  00000+0  49710-3 0  9991
2 57732  42.9979  64.7059 0003529 216.7869 143.2758 15.74760072  3502
STARLINK-30310          
1 57733U 23131B   23258.36257187  .00009965  00000+0  68700-4 0  9997
2 57733  42.9962  64.7018 0004025 209.9288 150.1351 15.74763058  3504
STARLINK-30365          
1 57734U 23131C   23258.34369912  .00111362  00000+0  61095-3 0  9990
2 57734  42.9959  64.5473 0007411 238.7796 121.2349 15.78661811  3492
STARLINK-30371          
1 57735U 23131D   23258.00001157  .00276493  00000+0  16316-2 0  9990
2 57735  42.9977  66.9025 0003829 219.8260 241.8090 15.76562662  3323
STARLINK-30352          
1 57736U 23131E   23258.36295261  .00034649  00000+0  23041-3 0  9990
2 57736  42.9966  64.7056 0003830 206.5964 153.4709 15.74764263  3490
STARLINK-30344          
1 57737U 23131F   23258.00001157 -.00880221  00000+0 -63490-2 0  9999
2 57737  42.9982  66.9054 0001980 212.6664 247.7221 15.75049818  3163
STARLINK-30351          
1 57738U 23131G   23258.36285856  .00087853  00000+0  57245-3 0  9999
2 57738  42.9972  64.7041 0007415 191.0168 169.0540 15.74869989  3497
